{"type":"FeatureCollection","name":"voesendorf-abfuhrgebiete","attribution":"© OpenStreetMap contributors (ODbL), via Overpass API","features":[{"type":"Feature","properties":{"kind":"street","street":"Am Haidegrund","zone":"oberort"},"geometry":{"type":"LineString","coordinates":[[16.327705,48.137215],[16.327657,48.137129],[16.327347,48.13654],[16.326964,48.135799]]}},{"type":"Feature","properties":{"kind":"street","street":"Am Petersbach","zone":"oberort"},"geometry":{"type":"LineString","coordinates":[[16.319316,48.123654],[16.319511,48.124412]]}},{"type":"Feature","properties":{"kind":"street","street":"Baslergasse","zone":"oberort"},"geometry":{"type":"LineString","coordinates":[[16.324798,48.132496],[16.323835,48.132734]]}},{"type":"Feature","properties":{"kind":"street","street":"Baslergasse","zone":"oberort"},"geometry":{"type":"LineString","coordinates":[[16.319215,48.127371],[16.319259,48.12736],[16.319473,48.127309],[16.319712,48.127251],[16.319797,48.127231],[16.319928,48.127196]]}},{"type":"Feature","properties":{"kind":"street","street":"Böheimgasse","zone":"oberort"},"geometry":{"type":"LineString","coordinates":[[16.331244,48.136545],[16.329145,48.136955],[16.329106,48.136963],[16.328966,48.136993],[16.328888,48.137007],[16.327705,48.137215]]}},{"type":"Feature","properties":{"kind":"street","street":"Doktor-Robert-Firneis-Straße","zone":"oberort"},"geometry":{"type":"LineString","coordinates":[[16.326666,48.128967],[16.326655,48.128944],[16.326555,48.128728],[16.325547,48.126674],[16.32526,48.126128],[16.324989,48.12558],[16.324793,48.12512],[16.324644,48.124646],[16.324627,48.124596]]}},{"type":"Feature","properties":{"kind":"street","street":"Doktor-Robert-Firneis-Straße","zone":"oberort"},"geometry":{"type":"LineString","coordinates":[[16.326666,48.128967],[16.326727,48.129027],[16.326807,48.129137],[16.326831,48.129162]]}},{"type":"Feature","properties":{"kind":"street","street":"Doktor-Robert-Firneis-Straße","zone":"oberort"},"geometry":{"type":"LineString","coordinates":[[16.326694,48.129188],[16.326688,48.129134],[16.326665,48.129043],[16.326666,48.128967]]}},{"type":"Feature","properties":{"kind":"street","street":"Dr. Karl Renner-Gasse","zone":"oberort"},"geometry":{"type":"LineString","coordinates":[[16.321213,48.126848],[16.320975,48.126904],[16.320375,48.12572],[16.320084,48.125168],[16.320056,48.125112]]}},{"type":"Feature","properties":{"kind":"street","street":"Dr. Karl Renner-Gasse","zone":"oberort"},"geometry":{"type":"LineString","coordinates":[[16.322472,48.126613],[16.321461,48.126837],[16.321301,48.126827],[16.321213,48.126848]]}},{"type":"Feature","properties":{"kind":"street","street":"Dr. Pertich-Gasse","zone":"oberort"},"geometry":{"type":"LineString","coordinates":[[16.32348,48.130071],[16.323939,48.130897],[16.324798,48.132496],[16.325587,48.133945],[16.325804,48.13399]]}},{"type":"Feature","properties":{"kind":"street","street":"Franz Gruber-Gasse","zone":"oberort"},"geometry":{"type":"LineString","coordinates":[[16.326529,48.134098],[16.326963,48.134157],[16.327651,48.134021],[16.328217,48.133904],[16.32997,48.13355]]}},{"type":"Feature","properties":{"kind":"street","street":"Franz Schubert-Gasse","zone":"oberort"},"geometry":{"type":"LineString","coordinates":[[16.328297,48.129794],[16.327578,48.129932],[16.327397,48.129907],[16.327134,48.129871],[16.32699,48.129859]]}},{"type":"Feature","properties":{"kind":"street","street":"Franz Spiegel-Gasse","zone":"oberort"},"geometry":{"type":"LineString","coordinates":[[16.329552,48.132816],[16.327338,48.133264],[16.32674,48.133402],[16.326529,48.134098],[16.326282,48.134962],[16.32626,48.13502],[16.326202,48.135128]]}},{"type":"Feature","properties":{"kind":"street","street":"Franz Spiegel-Gasse","zone":"oberort"},"geometry":{"type":"LineString","coordinates":[[16.326202,48.135128],[16.326211,48.135152],[16.326216,48.13518],[16.326219,48.135213],[16.326212,48.135251],[16.3262,48.135303],[16.326199,48.135338],[16.326208,48.135372],[16.326284,48.135529],[16.326468,48.135908]]}},{"type":"Feature","properties":{"kind":"street","street":"Fritz Schmerold-Gasse","zone":"oberort"},"geometry":{"type":"LineString","coordinates":[[16.326468,48.135908],[16.326784,48.135839]]}},{"type":"Feature","properties":{"kind":"street","street":"Fritz Schmerold-Gasse","zone":"oberort"},"geometry":{"type":"LineString","coordinates":[[16.326468,48.135908],[16.326043,48.135992]]}},{"type":"Feature","properties":{"kind":"street","street":"Fritz Schmerold-Gasse","zone":"oberort"},"geometry":{"type":"LineString","coordinates":[[16.32832,48.135521],[16.330544,48.135071]]}},{"type":"Feature","properties":{"kind":"street","street":"Fritz Schmerold-Gasse","zone":"oberort"},"geometry":{"type":"LineString","coordinates":[[16.326964,48.135799],[16.327936,48.135602],[16.32832,48.135521]]}},{"type":"Feature","properties":{"kind":"street","street":"Fritz Schmerold-Gasse","zone":"oberort"},"geometry":{"type":"LineString","coordinates":[[16.326784,48.135839],[16.326964,48.135799]]}},{"type":"Feature","properties":{"kind":"street","street":"Haidfeldstraße","zone":"oberort"},"geometry":{"type":"LineString","coordinates":[[16.32667,48.131753],[16.32668,48.131783],[16.326756,48.131963],[16.32679,48.132069],[16.32683,48.132193],[16.326974,48.132517],[16.327063,48.132717],[16.327146,48.132864],[16.327214,48.13299],[16.327338,48.133264],[16.32745,48.133525],[16.327493,48.133647],[16.327547,48.133789],[16.327651,48.134021],[16.327771,48.134294],[16.327827,48.134384],[16.327894,48.134515],[16.328,48.134765]]}},{"type":"Feature","properties":{"kind":"street","street":"Haidfeldstraße","zone":"oberort"},"geometry":{"type":"LineString","coordinates":[[16.328,48.134765],[16.328102,48.134982],[16.328153,48.135126],[16.328194,48.135258],[16.32832,48.135521]]}},{"type":"Feature","properties":{"kind":"street","street":"Haidfeldstraße","zone":"oberort"},"geometry":{"type":"LineString","coordinates":[[16.32832,48.135521],[16.328415,48.135737],[16.328474,48.135847],[16.328556,48.135997],[16.328665,48.136249],[16.328671,48.136262],[16.328681,48.136286],[16.328824,48.136597],[16.328834,48.13664],[16.328874,48.136741],[16.328905,48.136859],[16.32892,48.136894],[16.328925,48.136907],[16.328966,48.136993]]}},{"type":"Feature","properties":{"kind":"street","street":"Heinrich Tröber-Gasse","zone":"oberort"},"geometry":{"type":"LineString","coordinates":[[16.325523,48.135005],[16.325838,48.135041],[16.326068,48.135074],[16.326146,48.135091],[16.326183,48.135111],[16.326202,48.135128]]}},{"type":"Feature","properties":{"kind":"street","street":"Heinrich Tröber-Gasse","zone":"oberort"},"geometry":{"type":"LineString","coordinates":[[16.328,48.134765],[16.326685,48.135036],[16.326346,48.135098],[16.326202,48.135128]]}},{"type":"Feature","properties":{"kind":"street","street":"Heinrich Tröber-Gasse","zone":"oberort"},"geometry":{"type":"LineString","coordinates":[[16.328,48.134765],[16.330306,48.134307]]}},{"type":"Feature","properties":{"kind":"street","street":"Jakob Janisch-Gasse","zone":"oberort"},"geometry":{"type":"LineString","coordinates":[[16.328671,48.136262],[16.330939,48.135817]]}},{"type":"Feature","properties":{"kind":"street","street":"Karl Weiss-Gasse","zone":"oberort"},"geometry":{"type":"LineString","coordinates":[[16.328642,48.130544],[16.327401,48.130798],[16.327342,48.130805],[16.32727,48.130805],[16.326878,48.130749],[16.32676,48.130738]]}},{"type":"Feature","properties":{"kind":"street","street":"Konsumstraße","zone":"oberort"},"geometry":{"type":"LineString","coordinates":[[16.324137,48.129902],[16.32348,48.130071],[16.323238,48.130135],[16.323006,48.130197],[16.322805,48.13025]]}},{"type":"Feature","properties":{"kind":"street","street":"Konsumstraße","zone":"oberort"},"geometry":{"type":"LineString","coordinates":[[16.326284,48.129385],[16.326056,48.129441],[16.325989,48.129458],[16.325559,48.129563],[16.325465,48.129586],[16.324442,48.129837],[16.324137,48.129902]]}},{"type":"Feature","properties":{"kind":"street","street":"Konsumstraße","zone":"oberort"},"geometry":{"type":"LineString","coordinates":[[16.326284,48.129385],[16.326393,48.129343],[16.326479,48.129319],[16.326581,48.129282],[16.326624,48.129259]]}},{"type":"Feature","properties":{"kind":"street","street":"Konsumstraße","zone":"oberort"},"geometry":{"type":"LineString","coordinates":[[16.326658,48.129372],[16.326569,48.129366],[16.326486,48.129369],[16.326404,48.129377],[16.326284,48.129385]]}},{"type":"Feature","properties":{"kind":"street","street":"Konsumstraße","zone":"oberort"},"geometry":{"type":"LineString","coordinates":[[16.322805,48.13025],[16.322716,48.130274],[16.321959,48.130447]]}},{"type":"Feature","properties":{"kind":"street","street":"Leopold Mandl-Gasse","zone":"oberort"},"geometry":{"type":"LineString","coordinates":[[16.328327,48.125269],[16.3282,48.12526],[16.328026,48.125249],[16.327551,48.125371]]}},{"type":"Feature","properties":{"kind":"street","street":"Marktstraße","zone":"oberort"},"geometry":{"type":"LineString","coordinates":[[16.324137,48.129902],[16.323795,48.129226],[16.323607,48.128853],[16.323067,48.127784],[16.322841,48.127337],[16.322472,48.126613],[16.322416,48.1265],[16.322149,48.125962],[16.321986,48.125634],[16.321941,48.125451],[16.321908,48.125339],[16.321832,48.124987],[16.321825,48.124956]]}},{"type":"Feature","properties":{"kind":"street","street":"Marktstraße","zone":"oberort"},"geometry":{"type":"LineString","coordinates":[[16.321825,48.124956],[16.32181,48.124889]]}},{"type":"Feature","properties":{"kind":"street","street":"Mitterberggasse","zone":"oberort"},"geometry":{"type":"LineString","coordinates":[[16.320471,48.121798],[16.320278,48.121721],[16.320123,48.121682],[16.32008,48.121671],[16.319876,48.121628],[16.318937,48.121408],[16.318826,48.121391],[16.318729,48.121393],[16.318196,48.121456]]}},{"type":"Feature","properties":{"kind":"street","street":"Mitterberggasse","zone":"oberort"},"geometry":{"type":"LineString","coordinates":[[16.322254,48.121851],[16.322058,48.121845],[16.320471,48.121798]]}},{"type":"Feature","properties":{"kind":"street","street":"Raimundgasse","zone":"oberort"},"geometry":{"type":"LineString","coordinates":[[16.328973,48.131302],[16.32667,48.131753]]}},{"type":"Feature","properties":{"kind":"street","street":"Rossödengasse","zone":"oberort"},"geometry":{"type":"LineString","coordinates":[[16.318599,48.122984],[16.320675,48.122756]]}},{"type":"Feature","properties":{"kind":"street","street":"Schweizer Gasse","zone":"oberort"},"geometry":{"type":"LineString","coordinates":[[16.323939,48.130897],[16.322966,48.131133],[16.322679,48.131202]]}},{"type":"Feature","properties":{"kind":"street","street":"Sperlinggasse","zone":"oberort"},"geometry":{"type":"LineString","coordinates":[[16.322966,48.131133],[16.323835,48.132734]]}},{"type":"Feature","properties":{"kind":"street","street":"Stefan Brauneder-Gasse","zone":"oberort"},"geometry":{"type":"LineString","coordinates":[[16.329302,48.132056],[16.326974,48.132517]]}},{"type":"Feature","properties":{"kind":"street","street":"Leopold Stipcak-Gasse","zone":"oberort"},"geometry":{"type":"LineString","coordinates":[[16.318395,48.122266],[16.320501,48.122031]]}},{"type":"Feature","properties":{"kind":"street","street":"Triester Straße","zone":"oberort"},"geometry":{"type":"LineString","coordinates":[[16.325197,48.136311],[16.32535,48.136523],[16.325424,48.13662]]}},{"type":"Feature","properties":{"kind":"street","street":"Triester Straße","zone":"oberort"},"geometry":{"type":"LineString","coordinates":[[16.318999,48.125552],[16.319062,48.125672],[16.31909,48.125725],[16.319117,48.125768],[16.31913,48.125792],[16.319143,48.125813]]}},{"type":"Feature","properties":{"kind":"street","street":"Triester Straße","zone":"oberort"},"geometry":{"type":"LineString","coordinates":[[16.316492,48.11625],[16.316586,48.116558],[16.316698,48.116976],[16.316949,48.118183],[16.316974,48.118306]]}},{"type":"Feature","properties":{"kind":"street","street":"Triester Straße","zone":"oberort"},"geometry":{"type":"LineString","coordinates":[[16.315794,48.114433],[16.315615,48.113871],[16.315519,48.113492],[16.315501,48.113424]]}},{"type":"Feature","properties":{"kind":"street","street":"Triester Straße","zone":"oberort"},"geometry":{"type":"LineString","coordinates":[[16.315501,48.113424],[16.315478,48.113348]]}},{"type":"Feature","properties":{"kind":"street","street":"Triester Straße","zone":"oberort"},"geometry":{"type":"LineString","coordinates":[[16.315417,48.107487],[16.315414,48.107667],[16.315394,48.108595],[16.315346,48.110993],[16.315348,48.111367],[16.315359,48.111619],[16.315363,48.111693]]}},{"type":"Feature","properties":{"kind":"street","street":"Triester Straße","zone":"oberort"},"geometry":{"type":"LineString","coordinates":[[16.325107,48.136178],[16.325197,48.136311]]}},{"type":"Feature","properties":{"kind":"street","street":"Triester Straße","zone":"oberort"},"geometry":{"type":"LineString","coordinates":[[16.31527,48.110699],[16.31528,48.109886],[16.315294,48.109345],[16.315302,48.109049],[16.315307,48.108831],[16.315313,48.108553],[16.315289,48.107802]]}},{"type":"Feature","properties":{"kind":"street","street":"Triester Straße","zone":"oberort"},"geometry":{"type":"LineString","coordinates":[[16.316084,48.115143],[16.31598,48.115015],[16.315921,48.114857],[16.315852,48.11464],[16.315794,48.114433]]}},{"type":"Feature","properties":{"kind":"street","street":"Triester Straße","zone":"oberort"},"geometry":{"type":"LineString","coordinates":[[16.316084,48.115143],[16.316145,48.115333]]}},{"type":"Feature","properties":{"kind":"street","street":"Triester Straße","zone":"oberort"},"geometry":{"type":"LineString","coordinates":[[16.323947,48.134408],[16.324287,48.134928]]}},{"type":"Feature","properties":{"kind":"street","street":"Triester Straße","zone":"oberort"},"geometry":{"type":"LineString","coordinates":[[16.324287,48.134928],[16.32441,48.135118]]}},{"type":"Feature","properties":{"kind":"street","street":"Triester Straße","zone":"oberort"},"geometry":{"type":"LineString","coordinates":[[16.321948,48.130965],[16.322066,48.131195]]}},{"type":"Feature","properties":{"kind":"street","street":"Triester Straße","zone":"oberort"},"geometry":{"type":"LineString","coordinates":[[16.324543,48.135319],[16.324667,48.135514]]}},{"type":"Feature","properties":{"kind":"street","street":"Triester Straße","zone":"oberort"},"geometry":{"type":"LineString","coordinates":[[16.325424,48.13662],[16.325855,48.137183]]}},{"type":"Feature","properties":{"kind":"street","street":"Triester Straße","zone":"oberort"},"geometry":{"type":"LineString","coordinates":[[16.319787,48.126928],[16.319928,48.127196]]}},{"type":"Feature","properties":{"kind":"street","street":"Triester Straße","zone":"oberort"},"geometry":{"type":"LineString","coordinates":[[16.321693,48.130494],[16.321793,48.130674]]}},{"type":"Feature","properties":{"kind":"street","street":"Triester Straße","zone":"oberort"},"geometry":{"type":"LineString","coordinates":[[16.32441,48.135118],[16.324543,48.135319]]}},{"type":"Feature","properties":{"kind":"street","street":"Triester Straße","zone":"oberort"},"geometry":{"type":"LineString","coordinates":[[16.319928,48.127196],[16.320814,48.128844]]}},{"type":"Feature","properties":{"kind":"street","street":"Triester Straße","zone":"oberort"},"geometry":{"type":"LineString","coordinates":[[16.320814,48.128844],[16.321621,48.130359],[16.321644,48.130403],[16.321667,48.130445],[16.321693,48.130494]]}},{"type":"Feature","properties":{"kind":"street","street":"Triester Straße","zone":"oberort"},"geometry":{"type":"LineString","coordinates":[[16.324667,48.135514],[16.324738,48.13562]]}},{"type":"Feature","properties":{"kind":"street","street":"Triester Straße","zone":"oberort"},"geometry":{"type":"LineString","coordinates":[[16.319143,48.125813],[16.319494,48.12642]]}},{"type":"Feature","properties":{"kind":"street","street":"Triester Straße","zone":"oberort"},"geometry":{"type":"LineString","coordinates":[[16.322947,48.132835],[16.32317,48.133202],[16.323357,48.133487],[16.323754,48.134109]]}},{"type":"Feature","properties":{"kind":"street","street":"Triester Straße","zone":"oberort"},"geometry":{"type":"LineString","coordinates":[[16.322066,48.131195],[16.322613,48.132222],[16.322947,48.132835]]}},{"type":"Feature","properties":{"kind":"street","street":"Triester Straße","zone":"oberort"},"geometry":{"type":"LineString","coordinates":[[16.325855,48.137183],[16.325978,48.137342]]}},{"type":"Feature","properties":{"kind":"street","street":"Triester Straße","zone":"oberort"},"geometry":{"type":"LineString","coordinates":[[16.317212,48.11948],[16.317228,48.119558],[16.317273,48.119774]]}},{"type":"Feature","properties":{"kind":"street","street":"Triester Straße","zone":"oberort"},"geometry":{"type":"LineString","coordinates":[[16.317978,48.122439],[16.318061,48.122751],[16.318116,48.12296]]}},{"type":"Feature","properties":{"kind":"street","street":"Triester Straße","zone":"oberort"},"geometry":{"type":"LineString","coordinates":[[16.318116,48.12296],[16.318242,48.123417]]}},{"type":"Feature","properties":{"kind":"street","street":"Triester Straße","zone":"oberort"},"geometry":{"type":"LineString","coordinates":[[16.317273,48.119774],[16.317399,48.120302],[16.317463,48.120535]]}},{"type":"Feature","properties":{"kind":"street","street":"Triester Straße","zone":"oberort"},"geometry":{"type":"LineString","coordinates":[[16.318999,48.125552],[16.318876,48.12529],[16.31881,48.125157],[16.31875,48.125029],[16.318696,48.124907],[16.318646,48.124784],[16.318603,48.12467],[16.318564,48.124556],[16.318532,48.124443]]}},{"type":"Feature","properties":{"kind":"street","street":"Triester Straße","zone":"oberort"},"geometry":{"type":"LineString","coordinates":[[16.315665,48.113363],[16.315819,48.113976],[16.315973,48.114535],[16.316106,48.114995],[16.316084,48.115143]]}},{"type":"Feature","properties":{"kind":"street","street":"Triester Straße","zone":"oberort"},"geometry":{"type":"LineString","coordinates":[[16.315478,48.113348],[16.315363,48.11287],[16.315326,48.112668],[16.315289,48.112412],[16.315266,48.112129],[16.315254,48.11175],[16.315262,48.111441],[16.315267,48.111052]]}},{"type":"Feature","properties":{"kind":"street","street":"Triester Straße","zone":"oberort"},"geometry":{"type":"LineString","coordinates":[[16.315267,48.111052],[16.31527,48.110699]]}},{"type":"Feature","properties":{"kind":"street","street":"Triester Straße","zone":"oberort"},"geometry":{"type":"LineString","coordinates":[[16.315363,48.111693],[16.315412,48.112185],[16.315461,48.112453]]}},{"type":"Feature","properties":{"kind":"street","street":"Triester Straße","zone":"oberort"},"geometry":{"type":"LineString","coordinates":[[16.315289,48.107802],[16.315288,48.107729]]}},{"type":"Feature","properties":{"kind":"street","street":"Triester Straße","zone":"oberort"},"geometry":{"type":"LineString","coordinates":[[16.315461,48.112453],[16.315534,48.112833],[16.315642,48.113272],[16.315665,48.113363]]}},{"type":"Feature","properties":{"kind":"street","street":"Triester Straße","zone":"oberort"},"geometry":{"type":"LineString","coordinates":[[16.317463,48.120535],[16.317482,48.120605],[16.317564,48.120904],[16.317681,48.121331],[16.317978,48.122439]]}},{"type":"Feature","properties":{"kind":"street","street":"Triester Straße","zone":"oberort"},"geometry":{"type":"LineString","coordinates":[[16.318326,48.123718],[16.318428,48.124084],[16.318532,48.124443]]}},{"type":"Feature","properties":{"kind":"street","street":"Triester Straße","zone":"oberort"},"geometry":{"type":"LineString","coordinates":[[16.318242,48.123417],[16.318326,48.123718]]}},{"type":"Feature","properties":{"kind":"street","street":"Triester Straße","zone":"oberort"},"geometry":{"type":"LineString","coordinates":[[16.31975,48.126858],[16.319787,48.126928]]}},{"type":"Feature","properties":{"kind":"street","street":"Triester Straße","zone":"oberort"},"geometry":{"type":"LineString","coordinates":[[16.321793,48.130674],[16.321948,48.130965]]}},{"type":"Feature","properties":{"kind":"street","street":"Triester Straße","zone":"oberort"},"geometry":{"type":"LineString","coordinates":[[16.323754,48.134109],[16.323947,48.134408]]}},{"type":"Feature","properties":{"kind":"street","street":"Triester Straße","zone":"oberort"},"geometry":{"type":"LineString","coordinates":[[16.325107,48.136178],[16.32498,48.135989],[16.324927,48.135909],[16.324738,48.13562]]}},{"type":"Feature","properties":{"kind":"street","street":"Triester Straße","zone":"oberort"},"geometry":{"type":"LineString","coordinates":[[16.326303,48.137747],[16.326246,48.137676],[16.326109,48.137507],[16.32607,48.137457],[16.326056,48.13744],[16.326028,48.137405],[16.325978,48.137342]]}},{"type":"Feature","properties":{"kind":"street","street":"Triester Straße","zone":"oberort"},"geometry":{"type":"LineString","coordinates":[[16.316974,48.118306],[16.317039,48.118627],[16.31719,48.119365],[16.317191,48.119373],[16.317212,48.11948]]}},{"type":"Feature","properties":{"kind":"street","street":"Triester Straße","zone":"oberort"},"geometry":{"type":"LineString","coordinates":[[16.316145,48.115333],[16.316231,48.115567]]}},{"type":"Feature","properties":{"kind":"street","street":"Triester Straße","zone":"oberort"},"geometry":{"type":"LineString","coordinates":[[16.319494,48.12642],[16.319717,48.126799],[16.31975,48.126858]]}},{"type":"Feature","properties":{"kind":"street","street":"Triester Straße","zone":"oberort"},"geometry":{"type":"LineString","coordinates":[[16.316335,48.115843],[16.316492,48.11625]]}},{"type":"Feature","properties":{"kind":"street","street":"Triester Straße","zone":"oberort"},"geometry":{"type":"LineString","coordinates":[[16.316231,48.115567],[16.316335,48.115843]]}},{"type":"Feature","properties":{"kind":"street","street":"Weinberggasse","zone":"oberort"},"geometry":{"type":"LineString","coordinates":[[16.31879,48.123715],[16.319316,48.123654],[16.320093,48.123564],[16.320866,48.123489]]}},{"type":"Feature","properties":{"kind":"street","street":"Willi Hafenscher-Gasse","zone":"oberort"},"geometry":{"type":"LineString","coordinates":[[16.320471,48.121798],[16.320501,48.122031],[16.320589,48.122396],[16.320657,48.12268],[16.320662,48.122701],[16.320675,48.122756],[16.320686,48.122796],[16.320735,48.122983],[16.320756,48.123064],[16.32085,48.123427],[16.320866,48.123489],[16.320884,48.123545],[16.320949,48.123737]]}},{"type":"Feature","properties":{"kind":"street","street":"Willi Hafenscher-Gasse","zone":"oberort"},"geometry":{"type":"LineString","coordinates":[[16.320967,48.123801],[16.321022,48.12402],[16.321171,48.124646]]}},{"type":"Feature","properties":{"kind":"street","street":"Willi Hafenscher-Gasse","zone":"oberort"},"geometry":{"type":"LineString","coordinates":[[16.320949,48.123737],[16.320967,48.123801]]}},{"type":"Feature","properties":{"kind":"street","street":"Willi Hafenscher-Gasse","zone":"oberort"},"geometry":{"type":"LineString","coordinates":[[16.321171,48.124646],[16.321228,48.124892],[16.321239,48.12494]]}},{"type":"Feature","properties":{"kind":"street","street":"Bachgasse","zone":"unterort"},"geometry":{"type":"LineString","coordinates":[[16.342952,48.119731],[16.342966,48.119754],[16.342997,48.119805],[16.343059,48.119911]]}},{"type":"Feature","properties":{"kind":"street","street":"Bachgasse","zone":"unterort"},"geometry":{"type":"LineString","coordinates":[[16.346981,48.118758],[16.347257,48.118703],[16.348023,48.118646],[16.348579,48.118658],[16.348663,48.118881]]}},{"type":"Feature","properties":{"kind":"street","street":"Bachgasse","zone":"unterort"},"geometry":{"type":"LineString","coordinates":[[16.343059,48.119911],[16.343093,48.119902],[16.344676,48.119493],[16.344979,48.119456],[16.345346,48.119375],[16.345416,48.119347],[16.34655,48.11889],[16.346981,48.118758]]}},{"type":"Feature","properties":{"kind":"street","street":"Birkenweg","zone":"unterort"},"geometry":{"type":"LineString","coordinates":[[16.336548,48.120011],[16.336322,48.119546]]}},{"type":"Feature","properties":{"kind":"street","street":"Birkenweg","zone":"unterort"},"geometry":{"type":"LineString","coordinates":[[16.336548,48.120011],[16.336716,48.120377],[16.336729,48.120405]]}},{"type":"Feature","properties":{"kind":"street","street":"Brunnerweg","zone":"unterort"},"geometry":{"type":"LineString","coordinates":[[16.330291,48.118627],[16.330204,48.118635],[16.330093,48.118637]]}},{"type":"Feature","properties":{"kind":"street","street":"Brunnerweg","zone":"unterort"},"geometry":{"type":"LineString","coordinates":[[16.336548,48.120011],[16.335755,48.119848],[16.335541,48.119822],[16.335178,48.119805],[16.334782,48.119784]]}},{"type":"Feature","properties":{"kind":"street","street":"Brunnerweg","zone":"unterort"},"geometry":{"type":"LineString","coordinates":[[16.329042,48.11845],[16.32714,48.117839],[16.32709,48.117799],[16.327002,48.11758]]}},{"type":"Feature","properties":{"kind":"street","street":"Brunnerweg","zone":"unterort"},"geometry":{"type":"LineString","coordinates":[[16.330093,48.118637],[16.329945,48.118639],[16.329888,48.118637],[16.329042,48.11845]]}},{"type":"Feature","properties":{"kind":"street","street":"Brunnerweg","zone":"unterort"},"geometry":{"type":"LineString","coordinates":[[16.331844,48.118379],[16.330562,48.118603],[16.330291,48.118627]]}},{"type":"Feature","properties":{"kind":"street","street":"Brunnerweg","zone":"unterort"},"geometry":{"type":"LineString","coordinates":[[16.331999,48.1184],[16.331971,48.118397],[16.331844,48.118379]]}},{"type":"Feature","properties":{"kind":"street","street":"Föhrengasse","zone":"unterort"},"geometry":{"type":"LineString","coordinates":[[16.337727,48.119049],[16.337926,48.11937],[16.337973,48.119448],[16.337098,48.11969],[16.336861,48.119329]]}},{"type":"Feature","properties":{"kind":"street","street":"Föhrengasse","zone":"unterort"},"geometry":{"type":"LineString","coordinates":[[16.338109,48.119321],[16.337926,48.11937]]}},{"type":"Feature","properties":{"kind":"street","street":"Föhrengasse","zone":"unterort"},"geometry":{"type":"LineString","coordinates":[[16.337176,48.119824],[16.337098,48.11969]]}},{"type":"Feature","properties":{"kind":"street","street":"Freiheitsstraße","zone":"unterort"},"geometry":{"type":"LineString","coordinates":[[16.32959,48.119589],[16.329655,48.11974],[16.329919,48.120301],[16.330007,48.120432],[16.330166,48.120591],[16.330526,48.120873],[16.33057,48.120908]]}},{"type":"Feature","properties":{"kind":"street","street":"Freiheitsstraße","zone":"unterort"},"geometry":{"type":"LineString","coordinates":[[16.329042,48.11845],[16.328663,48.117673],[16.328455,48.117248],[16.328368,48.117074],[16.328111,48.11656],[16.327894,48.116134]]}},{"type":"Feature","properties":{"kind":"street","street":"Freiheitsstraße","zone":"unterort"},"geometry":{"type":"LineString","coordinates":[[16.331323,48.122195],[16.331472,48.122028]]}},{"type":"Feature","properties":{"kind":"street","street":"Freiheitsstraße","zone":"unterort"},"geometry":{"type":"LineString","coordinates":[[16.331472,48.122028],[16.331545,48.122215],[16.331557,48.122243]]}},{"type":"Feature","properties":{"kind":"street","street":"Freiheitsstraße","zone":"unterort"},"geometry":{"type":"LineString","coordinates":[[16.33057,48.120908],[16.330612,48.120948],[16.33063,48.120963],[16.33133,48.121542],[16.331599,48.121767],[16.331472,48.122028]]}},{"type":"Feature","properties":{"kind":"street","street":"Hutweidenweg","zone":"unterort"},"geometry":{"type":"LineString","coordinates":[[16.326706,48.116886],[16.326692,48.11691],[16.326698,48.116944],[16.327002,48.11758]]}},{"type":"Feature","properties":{"kind":"street","street":"Jordanstraße","zone":"unterort"},"geometry":{"type":"LineString","coordinates":[[16.330963,48.123915],[16.331257,48.124504]]}},{"type":"Feature","properties":{"kind":"street","street":"Jordanstraße","zone":"unterort"},"geometry":{"type":"LineString","coordinates":[[16.340063,48.123282],[16.340367,48.123244],[16.34054,48.123227],[16.341397,48.123147],[16.341462,48.123135]]}},{"type":"Feature","properties":{"kind":"street","street":"Jordanstraße","zone":"unterort"},"geometry":{"type":"LineString","coordinates":[[16.341462,48.123135],[16.341493,48.123129],[16.341637,48.123088]]}},{"type":"Feature","properties":{"kind":"street","street":"Jordanstraße","zone":"unterort"},"geometry":{"type":"LineString","coordinates":[[16.341792,48.123046],[16.341844,48.123025],[16.342372,48.122886],[16.343174,48.12266],[16.343374,48.122601]]}},{"type":"Feature","properties":{"kind":"street","street":"Jordanstraße","zone":"unterort"},"geometry":{"type":"LineString","coordinates":[[16.343374,48.122601],[16.344598,48.122284]]}},{"type":"Feature","properties":{"kind":"street","street":"Jordanstraße","zone":"unterort"},"geometry":{"type":"LineString","coordinates":[[16.341637,48.123088],[16.341792,48.123046]]}},{"type":"Feature","properties":{"kind":"street","street":"Jordanstraße","zone":"unterort"},"geometry":{"type":"LineString","coordinates":[[16.332101,48.124447],[16.333974,48.124087],[16.334426,48.124012],[16.335109,48.12392],[16.335883,48.12382],[16.336858,48.123703],[16.337507,48.123611],[16.339318,48.123381]]}},{"type":"Feature","properties":{"kind":"street","street":"Jordanstraße","zone":"unterort"},"geometry":{"type":"LineString","coordinates":[[16.331257,48.124504],[16.331339,48.124536],[16.331442,48.124554],[16.331594,48.124528],[16.332101,48.124447]]}},{"type":"Feature","properties":{"kind":"street","street":"Jordanstraße","zone":"unterort"},"geometry":{"type":"LineString","coordinates":[[16.330934,48.123837],[16.330942,48.12386],[16.330963,48.123915]]}},{"type":"Feature","properties":{"kind":"street","street":"Jordanstraße","zone":"unterort"},"geometry":{"type":"LineString","coordinates":[[16.339318,48.123381],[16.339429,48.123367],[16.339724,48.123325],[16.340063,48.123282]]}},{"type":"Feature","properties":{"kind":"street","street":"Kindbergstraße","zone":"unterort"},"geometry":{"type":"LineString","coordinates":[[16.335247,48.113262],[16.33527,48.113298]]}},{"type":"Feature","properties":{"kind":"street","street":"Kindbergstraße","zone":"unterort"},"geometry":{"type":"LineString","coordinates":[[16.338499,48.118833],[16.338825,48.119437]]}},{"type":"Feature","properties":{"kind":"street","street":"Kindbergstraße","zone":"unterort"},"geometry":{"type":"LineString","coordinates":[[16.338893,48.119558],[16.339373,48.120544]]}},{"type":"Feature","properties":{"kind":"street","street":"Kindbergstraße","zone":"unterort"},"geometry":{"type":"LineString","coordinates":[[16.335149,48.112883],[16.335205,48.113137],[16.335247,48.113262]]}},{"type":"Feature","properties":{"kind":"street","street":"Kindbergstraße","zone":"unterort"},"geometry":{"type":"LineString","coordinates":[[16.33714,48.116416],[16.337583,48.117229],[16.338048,48.118038],[16.338188,48.118281],[16.338451,48.11875],[16.338499,48.118833]]}},{"type":"Feature","properties":{"kind":"street","street":"Kindbergstraße","zone":"unterort"},"geometry":{"type":"LineString","coordinates":[[16.338825,48.119437],[16.338893,48.119558]]}},{"type":"Feature","properties":{"kind":"street","street":"Kindbergstraße","zone":"unterort"},"geometry":{"type":"LineString","coordinates":[[16.335025,48.113087],[16.335116,48.113107],[16.335205,48.113137]]}},{"type":"Feature","properties":{"kind":"street","street":"Kindbergstraße","zone":"unterort"},"geometry":{"type":"LineString","coordinates":[[16.335247,48.113262],[16.335074,48.113208],[16.33497,48.113184]]}},{"type":"Feature","properties":{"kind":"street","street":"Kindbergstraße","zone":"unterort"},"geometry":{"type":"LineString","coordinates":[[16.33527,48.113298],[16.335904,48.114314]]}},{"type":"Feature","properties":{"kind":"street","street":"Kindbergstraße","zone":"unterort"},"geometry":{"type":"LineString","coordinates":[[16.335904,48.114314],[16.336483,48.115322],[16.336536,48.115415],[16.33714,48.116416]]}},{"type":"Feature","properties":{"kind":"street","street":"Klausengasse","zone":"unterort"},"geometry":{"type":"LineString","coordinates":[[16.331599,48.121767],[16.3319,48.121686],[16.333901,48.121141],[16.334629,48.120932],[16.336729,48.120405],[16.336938,48.120357],[16.337006,48.12041],[16.337062,48.12043],[16.337111,48.120446],[16.33751,48.120471],[16.338089,48.120503],[16.339373,48.120544],[16.339489,48.120568],[16.339758,48.120567],[16.340555,48.120563]]}},{"type":"Feature","properties":{"kind":"street","street":"Laxenburger Straße","zone":"unterort"},"geometry":{"type":"LineString","coordinates":[[16.352703,48.117418],[16.353069,48.116928],[16.353306,48.116607],[16.353529,48.116309],[16.353761,48.11606],[16.354061,48.115702],[16.354252,48.115444],[16.354384,48.115246],[16.354432,48.115162],[16.354506,48.115033],[16.35453,48.114972],[16.354541,48.114931]]}},{"type":"Feature","properties":{"kind":"street","street":"Laxenburger Straße","zone":"unterort"},"geometry":{"type":"LineString","coordinates":[[16.350225,48.105773],[16.350229,48.105656],[16.35029,48.105459],[16.350396,48.10517],[16.350408,48.1051],[16.350413,48.105064]]}},{"type":"Feature","properties":{"kind":"street","street":"Laxenburger Straße","zone":"unterort"},"geometry":{"type":"LineString","coordinates":[[16.354983,48.130079],[16.355051,48.130208],[16.35508,48.130407]]}},{"type":"Feature","properties":{"kind":"street","street":"Laxenburger Straße","zone":"unterort"},"geometry":{"type":"LineString","coordinates":[[16.351852,48.109277],[16.351819,48.109333],[16.351824,48.109375],[16.351827,48.109439],[16.351823,48.109563]]}},{"type":"Feature","properties":{"kind":"street","street":"Laxenburger Straße","zone":"unterort"},"geometry":{"type":"LineString","coordinates":[[16.354983,48.130079],[16.35498,48.129987],[16.354976,48.129538],[16.354994,48.129442],[16.35503,48.129339]]}},{"type":"Feature","properties":{"kind":"street","street":"Laxenburger Straße","zone":"unterort"},"geometry":{"type":"LineString","coordinates":[[16.350168,48.106412],[16.350218,48.106583],[16.350282,48.106744]]}},{"type":"Feature","properties":{"kind":"street","street":"Laxenburger Straße","zone":"unterort"},"geometry":{"type":"LineString","coordinates":[[16.354981,48.130806],[16.35494,48.130403]]}},{"type":"Feature","properties":{"kind":"street","street":"Laxenburger Straße","zone":"unterort"},"geometry":{"type":"LineString","coordinates":[[16.35494,48.130403],[16.354931,48.13021],[16.354944,48.130176],[16.354983,48.130079]]}},{"type":"Feature","properties":{"kind":"street","street":"Laxenburger Straße","zone":"unterort"},"geometry":{"type":"LineString","coordinates":[[16.351823,48.109563],[16.351901,48.10975],[16.352002,48.109943],[16.352055,48.110047],[16.352387,48.110643],[16.352464,48.110775],[16.352572,48.110962],[16.35273,48.111258],[16.352956,48.111739],[16.353224,48.112267],[16.353542,48.112872],[16.353752,48.113273],[16.353861,48.113476],[16.353954,48.113649],[16.353996,48.11372],[16.354006,48.113738],[16.354169,48.114015]]}},{"type":"Feature","properties":{"kind":"street","street":"Laxenburger Straße","zone":"unterort"},"geometry":{"type":"LineString","coordinates":[[16.351823,48.109563],[16.35176,48.109459],[16.351733,48.109387],[16.351714,48.109345],[16.35167,48.109301]]}},{"type":"Feature","properties":{"kind":"street","street":"Laxenburger Straße","zone":"unterort"},"geometry":{"type":"LineString","coordinates":[[16.351344,48.10869],[16.351405,48.10874],[16.3515,48.108855],[16.35153,48.108892],[16.351604,48.108963],[16.351645,48.109002],[16.351718,48.109027]]}},{"type":"Feature","properties":{"kind":"street","street":"Laxenburger Straße","zone":"unterort"},"geometry":{"type":"LineString","coordinates":[[16.351558,48.109079],[16.351546,48.109025],[16.351526,48.108995],[16.351464,48.108905],[16.351359,48.108759],[16.351344,48.10869]]}},{"type":"Feature","properties":{"kind":"street","street":"Laxenburger Straße","zone":"unterort"},"geometry":{"type":"LineString","coordinates":[[16.350225,48.105773],[16.350168,48.106092],[16.350154,48.106259],[16.350168,48.106412]]}},{"type":"Feature","properties":{"kind":"street","street":"Laxenburger Straße","zone":"unterort"},"geometry":{"type":"LineString","coordinates":[[16.3506,48.10507],[16.350552,48.105103],[16.350488,48.10518],[16.350354,48.105469],[16.350288,48.105664],[16.350225,48.105773]]}},{"type":"Feature","properties":{"kind":"street","street":"Laxenburger Straße","zone":"unterort"},"geometry":{"type":"LineString","coordinates":[[16.352483,48.117769],[16.352453,48.11777],[16.352423,48.117767],[16.352394,48.117761],[16.352368,48.117751]]}},{"type":"Feature","properties":{"kind":"street","street":"Laxenburger Straße","zone":"unterort"},"geometry":{"type":"LineString","coordinates":[[16.352524,48.117531],[16.352554,48.11754],[16.352581,48.117552],[16.352604,48.117567],[16.352623,48.117585]]}},{"type":"Feature","properties":{"kind":"street","street":"Laxenburger Straße","zone":"unterort"},"geometry":{"type":"LineString","coordinates":[[16.352395,48.117533],[16.352427,48.117527],[16.352459,48.117524],[16.352492,48.117526],[16.352524,48.117531]]}},{"type":"Feature","properties":{"kind":"street","street":"Laxenburger Straße","zone":"unterort"},"geometry":{"type":"LineString","coordinates":[[16.352298,48.117594],[16.352316,48.117575],[16.352338,48.117557],[16.352365,48.117543],[16.352395,48.117533]]}},{"type":"Feature","properties":{"kind":"street","street":"Laxenburger Straße","zone":"unterort"},"geometry":{"type":"LineString","coordinates":[[16.352368,48.117751],[16.352332,48.117733],[16.352305,48.117708],[16.352292,48.117691],[16.352284,48.117672],[16.35228,48.117652],[16.352282,48.117632],[16.352287,48.117613],[16.352298,48.117594]]}},{"type":"Feature","properties":{"kind":"street","street":"Laxenburger Straße","zone":"unterort"},"geometry":{"type":"LineString","coordinates":[[16.352703,48.117418],[16.352639,48.117561],[16.352623,48.117585]]}},{"type":"Feature","properties":{"kind":"street","street":"Laxenburger Straße","zone":"unterort"},"geometry":{"type":"LineString","coordinates":[[16.352524,48.117531],[16.352703,48.117418]]}},{"type":"Feature","properties":{"kind":"street","street":"Laxenburger Straße","zone":"unterort"},"geometry":{"type":"LineString","coordinates":[[16.352483,48.117769],[16.352395,48.117847]]}},{"type":"Feature","properties":{"kind":"street","street":"Laxenburger Straße","zone":"unterort"},"geometry":{"type":"LineString","coordinates":[[16.352623,48.117585],[16.352638,48.117607],[16.352647,48.117631],[16.352648,48.117656],[16.352641,48.11768],[16.352628,48.117703],[16.352608,48.117723],[16.352583,48.117741],[16.352553,48.117755],[16.352519,48.117764],[16.352483,48.117769]]}},{"type":"Feature","properties":{"kind":"street","street":"Laxenburger Straße","zone":"unterort"},"geometry":{"type":"LineString","coordinates":[[16.352395,48.117847],[16.35237,48.117771],[16.352368,48.117751]]}},{"type":"Feature","properties":{"kind":"street","street":"Laxenburger Straße","zone":"unterort"},"geometry":{"type":"LineString","coordinates":[[16.354578,48.114669],[16.35459,48.114828],[16.35458,48.114871],[16.354541,48.114931]]}},{"type":"Feature","properties":{"kind":"street","street":"Laxenburger Straße","zone":"unterort"},"geometry":{"type":"LineString","coordinates":[[16.354541,48.114931],[16.354508,48.114836],[16.354474,48.114771],[16.35443,48.114733]]}},{"type":"Feature","properties":{"kind":"street","street":"Laxenburger Straße","zone":"unterort"},"geometry":{"type":"LineString","coordinates":[[16.354301,48.114213],[16.354372,48.114266],[16.354407,48.114345],[16.354441,48.114423],[16.354468,48.114477]]}},{"type":"Feature","properties":{"kind":"street","street":"Laxenburger Straße","zone":"unterort"},"geometry":{"type":"LineString","coordinates":[[16.354315,48.114486],[16.354313,48.114361],[16.3543,48.114277],[16.354301,48.114213]]}},{"type":"Feature","properties":{"kind":"street","street":"Laxenburger Straße","zone":"unterort"},"geometry":{"type":"LineString","coordinates":[[16.350282,48.106744],[16.350383,48.106952],[16.350509,48.107188],[16.350565,48.107294],[16.350808,48.107757],[16.351027,48.108151],[16.351169,48.108399],[16.351265,48.108567],[16.351344,48.10869]]}},{"type":"Feature","properties":{"kind":"street","street":"Laxenburger Straße","zone":"unterort"},"geometry":{"type":"LineString","coordinates":[[16.35508,48.130407],[16.355097,48.13057],[16.355132,48.130819],[16.355179,48.131066]]}},{"type":"Feature","properties":{"kind":"street","street":"Laxenburger Straße","zone":"unterort"},"geometry":{"type":"LineString","coordinates":[[16.354169,48.114015],[16.354207,48.114071],[16.354239,48.114121]]}},{"type":"Feature","properties":{"kind":"street","street":"Laxenburger Straße","zone":"unterort"},"geometry":{"type":"LineString","coordinates":[[16.354239,48.114121],[16.354301,48.114213]]}},{"type":"Feature","properties":{"kind":"street","street":"Lindengasse","zone":"unterort"},"geometry":{"type":"LineString","coordinates":[[16.338222,48.11891],[16.337727,48.119049],[16.337363,48.119152],[16.337071,48.119233],[16.336861,48.119329],[16.336372,48.119465]]}},{"type":"Feature","properties":{"kind":"street","street":"Lindengasse","zone":"unterort"},"geometry":{"type":"LineString","coordinates":[[16.338222,48.11891],[16.338499,48.118833]]}},{"type":"Feature","properties":{"kind":"street","street":"Meisengasse","zone":"unterort"},"geometry":{"type":"LineString","coordinates":[[16.326706,48.116886],[16.326724,48.116872],[16.326752,48.116861],[16.328111,48.11656]]}},{"type":"Feature","properties":{"kind":"street","street":"Mühlfeldgasse","zone":"unterort"},"geometry":{"type":"LineString","coordinates":[[16.330685,48.12072],[16.330786,48.120709],[16.330823,48.120705],[16.333987,48.120013],[16.334529,48.119901]]}},{"type":"Feature","properties":{"kind":"street","street":"Mühlgasse","zone":"unterort"},"geometry":{"type":"LineString","coordinates":[[16.329926,48.122047],[16.330017,48.122059],[16.33009,48.122067],[16.330365,48.122099],[16.330482,48.122111],[16.331323,48.122195],[16.331557,48.122243],[16.331975,48.122432],[16.332097,48.122492],[16.33231,48.122605],[16.332397,48.122678],[16.332841,48.123156],[16.332882,48.1232],[16.332891,48.12321]]}},{"type":"Feature","properties":{"kind":"street","street":"Roßdorfstraße","zone":"unterort"},"geometry":{"type":"LineString","coordinates":[[16.342602,48.118202],[16.342132,48.1183],[16.341946,48.11835],[16.341078,48.118631],[16.340631,48.11877],[16.340492,48.118822],[16.340167,48.118955]]}},{"type":"Feature","properties":{"kind":"street","street":"Roßdorfstraße","zone":"unterort"},"geometry":{"type":"LineString","coordinates":[[16.336938,48.120357],[16.336976,48.120339],[16.337837,48.119937],[16.338861,48.11957],[16.338893,48.119558]]}},{"type":"Feature","properties":{"kind":"street","street":"Roßdorfstraße","zone":"unterort"},"geometry":{"type":"LineString","coordinates":[[16.345802,48.118395],[16.345798,48.118367],[16.345744,48.117987]]}},{"type":"Feature","properties":{"kind":"street","street":"Roßdorfstraße","zone":"unterort"},"geometry":{"type":"LineString","coordinates":[[16.345744,48.117987],[16.345635,48.117951],[16.345519,48.117951],[16.34449,48.118077],[16.344443,48.118077],[16.343478,48.118087],[16.343089,48.118119],[16.342602,48.118202]]}},{"type":"Feature","properties":{"kind":"street","street":"Roßdorfstraße","zone":"unterort"},"geometry":{"type":"LineString","coordinates":[[16.340167,48.118955],[16.339224,48.119402],[16.338917,48.119547],[16.338893,48.119558]]}},{"type":"Feature","properties":{"kind":"street","street":"Schlossplatz","zone":"unterort"},"geometry":{"type":"LineString","coordinates":[[16.343742,48.120954],[16.343678,48.120902],[16.343531,48.120781],[16.343506,48.120744],[16.34345,48.120668],[16.343367,48.120543],[16.343304,48.120367],[16.343277,48.120316]]}},{"type":"Feature","properties":{"kind":"street","street":"Schlossplatz","zone":"unterort"},"geometry":{"type":"LineString","coordinates":[[16.343059,48.119911],[16.343082,48.119951],[16.343132,48.120044]]}},{"type":"Feature","properties":{"kind":"street","street":"Schlossplatz","zone":"unterort"},"geometry":{"type":"LineString","coordinates":[[16.343233,48.12023],[16.343132,48.120044]]}},{"type":"Feature","properties":{"kind":"street","street":"Schlossplatz","zone":"unterort"},"geometry":{"type":"LineString","coordinates":[[16.343277,48.120316],[16.343233,48.12023]]}},{"type":"Feature","properties":{"kind":"street","street":"Taubengasse","zone":"unterort"},"geometry":{"type":"LineString","coordinates":[[16.329341,48.120826],[16.330166,48.120591]]}},{"type":"Feature","properties":{"kind":"street","street":"Zeisiggasse","zone":"unterort"},"geometry":{"type":"LineString","coordinates":[[16.328455,48.117248],[16.327002,48.11758]]}},{"type":"Feature","properties":{"kind":"street","street":"Fischerstraße","zone":"seepark"},"geometry":{"type":"LineString","coordinates":[[16.348889,48.1103],[16.348656,48.110729]]}},{"type":"Feature","properties":{"kind":"street","street":"Fischerstraße","zone":"seepark"},"geometry":{"type":"LineString","coordinates":[[16.348771,48.108716],[16.349014,48.108742],[16.349292,48.108762],[16.349383,48.108776]]}},{"type":"Feature","properties":{"kind":"street","street":"Fischerstraße","zone":"seepark"},"geometry":{"type":"LineString","coordinates":[[16.349292,48.109189],[16.349352,48.108837],[16.349383,48.108776]]}},{"type":"Feature","properties":{"kind":"street","street":"Fischerstraße","zone":"seepark"},"geometry":{"type":"LineString","coordinates":[[16.348242,48.111534],[16.348101,48.111843]]}},{"type":"Feature","properties":{"kind":"street","street":"Fischerstraße","zone":"seepark"},"geometry":{"type":"LineString","coordinates":[[16.350108,48.108858],[16.349852,48.108722],[16.349738,48.108697],[16.349658,48.108702],[16.349474,48.108741],[16.349383,48.108776]]}},{"type":"Feature","properties":{"kind":"street","street":"Fischerstraße","zone":"seepark"},"geometry":{"type":"LineString","coordinates":[[16.348889,48.1103],[16.348968,48.110062],[16.349235,48.109368],[16.349292,48.109189]]}},{"type":"Feature","properties":{"kind":"street","street":"Fischerstraße","zone":"seepark"},"geometry":{"type":"LineString","coordinates":[[16.348656,48.110729],[16.348482,48.111075],[16.348301,48.111421],[16.348242,48.111534]]}},{"type":"Feature","properties":{"kind":"street","street":"Seeparkstraße","zone":"seepark"},"geometry":{"type":"LineString","coordinates":[[16.348889,48.1103],[16.349026,48.110297],[16.349097,48.110283],[16.349148,48.110259],[16.349186,48.110229],[16.349228,48.110178],[16.349256,48.11012],[16.349299,48.110055],[16.349352,48.109996],[16.34953,48.109827],[16.349661,48.109729],[16.34984,48.109635],[16.350144,48.109523],[16.350412,48.109455],[16.350627,48.109406]]}},{"type":"Feature","properties":{"kind":"street","street":"Seeparkstraße","zone":"seepark"},"geometry":{"type":"LineString","coordinates":[[16.349938,48.10676],[16.351306,48.109221],[16.351329,48.109261]]}},{"type":"Feature","properties":{"kind":"street","street":"Seeparkstraße","zone":"seepark"},"geometry":{"type":"LineString","coordinates":[[16.351558,48.109254],[16.351456,48.109261],[16.351403,48.109264],[16.351329,48.109261]]}},{"type":"Feature","properties":{"kind":"street","street":"Seeparkstraße","zone":"seepark"},"geometry":{"type":"LineString","coordinates":[[16.351329,48.109261],[16.351375,48.109222],[16.35142,48.109204],[16.351515,48.109166]]}},{"type":"Feature","properties":{"kind":"street","street":"Seeparkstraße","zone":"seepark"},"geometry":{"type":"LineString","coordinates":[[16.350627,48.109406],[16.351098,48.109312],[16.351329,48.109261]]}},{"type":"Feature","properties":{"kind":"street","street":"Seeweg","zone":"seepark"},"geometry":{"type":"LineString","coordinates":[[16.348101,48.111843],[16.347875,48.112147],[16.347867,48.112188]]}},{"type":"Feature","properties":{"kind":"street","street":"Seeweg","zone":"seepark"},"geometry":{"type":"LineString","coordinates":[[16.349945,48.116548],[16.349896,48.116471],[16.349668,48.116051],[16.349038,48.114888],[16.348543,48.113984],[16.348562,48.113947],[16.348591,48.113914],[16.34868,48.113838]]}},{"type":"Feature","properties":{"kind":"street","street":"Seeweg","zone":"seepark"},"geometry":{"type":"LineString","coordinates":[[16.347867,48.112188],[16.347876,48.112227],[16.34868,48.113838]]}},{"type":"Feature","properties":{"kind":"street","street":"Seeweg","zone":"seepark"},"geometry":{"type":"LineString","coordinates":[[16.349986,48.116584],[16.349945,48.116548]]}},{"type":"Feature","properties":{"kind":"street","street":"Strandstraße","zone":"seepark"},"geometry":{"type":"LineString","coordinates":[[16.34984,48.110131],[16.349948,48.110048],[16.350068,48.109963],[16.350201,48.109898],[16.350376,48.109838],[16.35049,48.109812],[16.350783,48.109759]]}},{"type":"Feature","properties":{"kind":"street","street":"Strandstraße","zone":"seepark"},"geometry":{"type":"LineString","coordinates":[[16.350569,48.111069],[16.350918,48.111162],[16.351187,48.111194],[16.351398,48.111198],[16.351413,48.111198],[16.351427,48.111195],[16.35144,48.111191],[16.351453,48.111186],[16.351464,48.111179],[16.351473,48.111171],[16.35148,48.111163],[16.351485,48.111154],[16.351504,48.111009],[16.351819,48.110933]]}},{"type":"Feature","properties":{"kind":"street","street":"Strandstraße","zone":"seepark"},"geometry":{"type":"LineString","coordinates":[[16.350627,48.109406],[16.350474,48.109206],[16.350245,48.108971],[16.350108,48.108858]]}},{"type":"Feature","properties":{"kind":"street","street":"Strandstraße","zone":"seepark"},"geometry":{"type":"LineString","coordinates":[[16.349303,48.110575],[16.349597,48.110858],[16.349752,48.110998],[16.350088,48.111258],[16.350159,48.111319]]}},{"type":"Feature","properties":{"kind":"street","street":"Strandstraße","zone":"seepark"},"geometry":{"type":"LineString","coordinates":[[16.350162,48.110735],[16.350065,48.110727],[16.349996,48.110729],[16.349928,48.110737],[16.349836,48.110761],[16.349597,48.110858]]}},{"type":"Feature","properties":{"kind":"street","street":"Strandstraße","zone":"seepark"},"geometry":{"type":"LineString","coordinates":[[16.348101,48.111843],[16.348186,48.111864],[16.348236,48.11187],[16.348278,48.111869],[16.349026,48.11171],[16.349452,48.111598],[16.349863,48.111427],[16.350071,48.111343],[16.350159,48.111319],[16.350285,48.111293],[16.35034,48.11127],[16.350379,48.111247],[16.350569,48.111069],[16.350736,48.110751],[16.35078,48.110643],[16.350807,48.110545],[16.350845,48.110275],[16.350837,48.110088],[16.350821,48.109915],[16.350803,48.109833],[16.350783,48.109759],[16.350771,48.109722],[16.350682,48.109508],[16.350627,48.109406]]}},{"type":"Feature","properties":{"kind":"street","street":"Zum Anningerblick","zone":"seepark"},"geometry":{"type":"LineString","coordinates":[[16.349292,48.109189],[16.349459,48.109185],[16.349545,48.109172],[16.349654,48.109142],[16.349834,48.109069],[16.349965,48.108994],[16.350078,48.108906],[16.350108,48.108858]]}},{"type":"Feature","properties":{"kind":"street","street":"Zum Anningerblick","zone":"seepark"},"geometry":{"type":"LineString","coordinates":[[16.349967,48.106718],[16.350113,48.106462],[16.350168,48.106412]]}},{"type":"Feature","properties":{"kind":"street","street":"Zum Anningerblick","zone":"seepark"},"geometry":{"type":"LineString","coordinates":[[16.349938,48.10676],[16.349967,48.106718]]}},{"type":"Feature","properties":{"kind":"street","street":"Zum Anningerblick","zone":"seepark"},"geometry":{"type":"LineString","coordinates":[[16.350108,48.108858],[16.350195,48.108718],[16.350236,48.108553],[16.350241,48.108394],[16.350177,48.108196],[16.350072,48.108016],[16.349916,48.107842],[16.34967,48.107671],[16.34945,48.107555],[16.349701,48.107152],[16.349938,48.10676]]}},{"type":"Feature","properties":{"kind":"street","street":"Ortsstraße","zone":"oberort","shared":true,"part":"Badner Bahn bis Pizzeria Fontana"},"geometry":{"type":"LineString","coordinates":[[16.318999,48.125552],[16.319072,48.12547],[16.319125,48.125414],[16.319147,48.125397],[16.319168,48.125383],[16.319211,48.125359],[16.319255,48.12534],[16.319314,48.125319],[16.31942,48.125283],[16.319485,48.125261],[16.319664,48.125207],[16.319778,48.125177],[16.319842,48.125159]]}},{"type":"Feature","properties":{"kind":"street","street":"Ortsstraße","zone":"oberort","shared":true,"part":"Badner Bahn bis Pizzeria Fontana"},"geometry":{"type":"LineString","coordinates":[[16.32835,48.124494],[16.327888,48.12448],[16.327815,48.124477]]}},{"type":"Feature","properties":{"kind":"street","street":"Ortsstraße","zone":"oberort","shared":true,"part":"Badner Bahn bis Pizzeria Fontana"},"geometry":{"type":"LineString","coordinates":[[16.321053,48.124959],[16.320817,48.124982],[16.320684,48.124999],[16.320553,48.125018],[16.320425,48.12504],[16.320335,48.125055],[16.320165,48.125088],[16.320056,48.125112],[16.319893,48.125148],[16.319842,48.125159]]}},{"type":"Feature","properties":{"kind":"street","street":"Ortsstraße","zone":"oberort","shared":true,"part":"Badner Bahn bis Pizzeria Fontana"},"geometry":{"type":"LineString","coordinates":[[16.32181,48.124889],[16.321477,48.124919]]}},{"type":"Feature","properties":{"kind":"street","street":"Ortsstraße","zone":"oberort","shared":true,"part":"Badner Bahn bis Pizzeria Fontana"},"geometry":{"type":"LineString","coordinates":[[16.32328,48.124786],[16.32259,48.124834]]}},{"type":"Feature","properties":{"kind":"street","street":"Ortsstraße","zone":"oberort","shared":true,"part":"Badner Bahn bis Pizzeria Fontana"},"geometry":{"type":"LineString","coordinates":[[16.325756,48.124461],[16.32544,48.12449],[16.32506,48.124535],[16.324627,48.124596]]}},{"type":"Feature","properties":{"kind":"street","street":"Ortsstraße","zone":"oberort","shared":true,"part":"Badner Bahn bis Pizzeria Fontana"},"geometry":{"type":"LineString","coordinates":[[16.327815,48.124477],[16.327198,48.124452],[16.327158,48.124451],[16.32683,48.124443],[16.326174,48.124445],[16.325974,48.124448],[16.325756,48.124461]]}},{"type":"Feature","properties":{"kind":"street","street":"Ortsstraße","zone":"oberort","shared":true,"part":"Badner Bahn bis Pizzeria Fontana"},"geometry":{"type":"LineString","coordinates":[[16.321239,48.12494],[16.321053,48.124959]]}},{"type":"Feature","properties":{"kind":"street","street":"Ortsstraße","zone":"oberort","shared":true,"part":"Badner Bahn bis Pizzeria Fontana"},"geometry":{"type":"LineString","coordinates":[[16.324627,48.124596],[16.324,48.124685]]}},{"type":"Feature","properties":{"kind":"street","street":"Ortsstraße","zone":"oberort","shared":true,"part":"Badner Bahn bis Pizzeria Fontana"},"geometry":{"type":"LineString","coordinates":[[16.324,48.124685],[16.323558,48.124749]]}},{"type":"Feature","properties":{"kind":"street","street":"Ortsstraße","zone":"oberort","shared":true,"part":"Badner Bahn bis Pizzeria Fontana"},"geometry":{"type":"LineString","coordinates":[[16.323558,48.124749],[16.32328,48.124786]]}},{"type":"Feature","properties":{"kind":"street","street":"Ortsstraße","zone":"oberort","shared":true,"part":"Badner Bahn bis Pizzeria Fontana"},"geometry":{"type":"LineString","coordinates":[[16.32259,48.124834],[16.32181,48.124889]]}},{"type":"Feature","properties":{"kind":"street","street":"Ortsstraße","zone":"oberort","shared":true,"part":"Badner Bahn bis Pizzeria Fontana"},"geometry":{"type":"LineString","coordinates":[[16.321477,48.124919],[16.321239,48.12494]]}},{"type":"Feature","properties":{"kind":"street","street":"Ortsstraße","zone":"unterort","shared":true,"part":"Pizzeria Fontana bis Ortszentrum"},"geometry":{"type":"LineString","coordinates":[[16.355257,48.114136],[16.355092,48.114282],[16.355007,48.114348]]}},{"type":"Feature","properties":{"kind":"street","street":"Ortsstraße","zone":"unterort","shared":true,"part":"Pizzeria Fontana bis Ortszentrum"},"geometry":{"type":"LineString","coordinates":[[16.353907,48.114907],[16.353619,48.11504],[16.352537,48.115496],[16.352019,48.115714],[16.351735,48.115836],[16.351396,48.115981],[16.351029,48.116139],[16.350781,48.11624],[16.350564,48.116334],[16.350349,48.116428],[16.350207,48.11649],[16.349986,48.116584]]}},{"type":"Feature","properties":{"kind":"street","street":"Ortsstraße","zone":"unterort","shared":true,"part":"Pizzeria Fontana bis Ortszentrum"},"geometry":{"type":"LineString","coordinates":[[16.346597,48.11804],[16.34643,48.118115],[16.346314,48.118168],[16.345802,48.118395],[16.345686,48.118455],[16.345326,48.118658],[16.345233,48.118715],[16.34495,48.118882],[16.344741,48.119006],[16.344594,48.119075],[16.344458,48.119139],[16.344279,48.119218],[16.343316,48.119608],[16.343154,48.119667],[16.342952,48.119731],[16.342827,48.119763],[16.342002,48.119973],[16.341573,48.120111],[16.341232,48.120249]]}},{"type":"Feature","properties":{"kind":"street","street":"Ortsstraße","zone":"unterort","shared":true,"part":"Pizzeria Fontana bis Ortszentrum"},"geometry":{"type":"LineString","coordinates":[[16.348436,48.117247],[16.348285,48.117313],[16.346759,48.11797],[16.346597,48.11804]]}},{"type":"Feature","properties":{"kind":"street","street":"Ortsstraße","zone":"unterort","shared":true,"part":"Pizzeria Fontana bis Ortszentrum"},"geometry":{"type":"LineString","coordinates":[[16.328404,48.124495],[16.32835,48.124494]]}},{"type":"Feature","properties":{"kind":"street","street":"Ortsstraße","zone":"unterort","shared":true,"part":"Pizzeria Fontana bis Ortszentrum"},"geometry":{"type":"LineString","coordinates":[[16.335965,48.122593],[16.335881,48.12261],[16.335741,48.122633],[16.335212,48.122741],[16.334295,48.122964],[16.33404,48.12302],[16.333652,48.123087],[16.333241,48.123156],[16.332891,48.12321]]}},{"type":"Feature","properties":{"kind":"street","street":"Ortsstraße","zone":"unterort","shared":true,"part":"Pizzeria Fontana bis Ortszentrum"},"geometry":{"type":"LineString","coordinates":[[16.349986,48.116584],[16.349119,48.116951],[16.348853,48.117067],[16.348436,48.117247]]}},{"type":"Feature","properties":{"kind":"street","street":"Ortsstraße","zone":"unterort","shared":true,"part":"Pizzeria Fontana bis Ortszentrum"},"geometry":{"type":"LineString","coordinates":[[16.338073,48.12204],[16.337975,48.122067],[16.337621,48.122165],[16.337441,48.122213],[16.337039,48.122319],[16.336552,48.122448],[16.335965,48.122593]]}},{"type":"Feature","properties":{"kind":"street","street":"Ortsstraße","zone":"unterort","shared":true,"part":"Pizzeria Fontana bis Ortszentrum"},"geometry":{"type":"LineString","coordinates":[[16.354358,48.114729],[16.354184,48.114807],[16.354043,48.114868],[16.353972,48.114874]]}},{"type":"Feature","properties":{"kind":"street","street":"Ortsstraße","zone":"unterort","shared":true,"part":"Pizzeria Fontana bis Ortszentrum"},"geometry":{"type":"LineString","coordinates":[[16.340701,48.120486],[16.340649,48.120509],[16.340584,48.120541],[16.340555,48.120563]]}},{"type":"Feature","properties":{"kind":"street","street":"Ortsstraße","zone":"unterort","shared":true,"part":"Pizzeria Fontana bis Ortszentrum"},"geometry":{"type":"LineString","coordinates":[[16.330789,48.123882],[16.330617,48.123936],[16.33046,48.123984],[16.329943,48.124131],[16.329382,48.124279],[16.329214,48.12432]]}},{"type":"Feature","properties":{"kind":"street","street":"Ortsstraße","zone":"unterort","shared":true,"part":"Pizzeria Fontana bis Ortszentrum"},"geometry":{"type":"LineString","coordinates":[[16.332891,48.12321],[16.332723,48.12325],[16.332555,48.123294],[16.331685,48.123585],[16.330934,48.123837],[16.330789,48.123882]]}},{"type":"Feature","properties":{"kind":"street","street":"Ortsstraße","zone":"unterort","shared":true,"part":"Pizzeria Fontana bis Ortszentrum"},"geometry":{"type":"LineString","coordinates":[[16.353972,48.114874],[16.354011,48.114831],[16.35414,48.11476],[16.354204,48.114714],[16.354243,48.114674]]}},{"type":"Feature","properties":{"kind":"street","street":"Ortsstraße","zone":"unterort","shared":true,"part":"Pizzeria Fontana bis Ortszentrum"},"geometry":{"type":"LineString","coordinates":[[16.353972,48.114874],[16.353907,48.114907]]}},{"type":"Feature","properties":{"kind":"street","street":"Ortsstraße","zone":"unterort","shared":true,"part":"Pizzeria Fontana bis Ortszentrum"},"geometry":{"type":"LineString","coordinates":[[16.354523,48.114495],[16.35472,48.114467],[16.354862,48.114428],[16.354915,48.114419]]}},{"type":"Feature","properties":{"kind":"street","street":"Ortsstraße","zone":"unterort","shared":true,"part":"Pizzeria Fontana bis Ortszentrum"},"geometry":{"type":"LineString","coordinates":[[16.354915,48.114419],[16.354879,48.114452],[16.354758,48.114521],[16.354664,48.114578],[16.354605,48.114612]]}},{"type":"Feature","properties":{"kind":"street","street":"Ortsstraße","zone":"unterort","shared":true,"part":"Pizzeria Fontana bis Ortszentrum"},"geometry":{"type":"LineString","coordinates":[[16.341232,48.120249],[16.340701,48.120486]]}},{"type":"Feature","properties":{"kind":"street","street":"Ortsstraße","zone":"unterort","shared":true,"part":"Pizzeria Fontana bis Ortszentrum"},"geometry":{"type":"LineString","coordinates":[[16.340555,48.120563],[16.340561,48.120608],[16.340593,48.120662],[16.340766,48.120956],[16.34088,48.121153]]}},{"type":"Feature","properties":{"kind":"street","street":"Ortsstraße","zone":"unterort","shared":true,"part":"Pizzeria Fontana bis Ortszentrum"},"geometry":{"type":"LineString","coordinates":[[16.340839,48.121277],[16.340824,48.121238],[16.340681,48.120977],[16.34052,48.120697],[16.340505,48.120661],[16.3405,48.120618],[16.340514,48.120593],[16.340555,48.120563]]}},{"type":"Feature","properties":{"kind":"street","street":"Ortsstraße","zone":"unterort","shared":true,"part":"Pizzeria Fontana bis Ortszentrum"},"geometry":{"type":"LineString","coordinates":[[16.328552,48.124499],[16.328683,48.124463],[16.328732,48.12445],[16.329214,48.12432]]}},{"type":"Feature","properties":{"kind":"street","street":"Ortsstraße","zone":"unterort","shared":true,"part":"Pizzeria Fontana bis Ortszentrum"},"geometry":{"type":"LineString","coordinates":[[16.328552,48.124499],[16.328404,48.124495]]}},{"type":"Feature","properties":{"kind":"street","street":"Ortsstraße","zone":"unterort","shared":true,"part":"Pizzeria Fontana bis Ortszentrum"},"geometry":{"type":"LineString","coordinates":[[16.340839,48.121277],[16.340779,48.121317],[16.340478,48.121391],[16.339134,48.121752],[16.338752,48.121854],[16.338654,48.12188]]}},{"type":"Feature","properties":{"kind":"street","street":"Ortsstraße","zone":"unterort","shared":true,"part":"Pizzeria Fontana bis Ortszentrum"},"geometry":{"type":"LineString","coordinates":[[16.338654,48.12188],[16.338581,48.1219],[16.338073,48.12204]]}},{"type":"Feature","properties":{"kind":"street","street":"Ortsstraße","zone":"unterort","shared":true,"part":"Pizzeria Fontana bis Ortszentrum"},"geometry":{"type":"LineString","coordinates":[[16.34088,48.121153],[16.340892,48.121177],[16.340922,48.121247],[16.340839,48.121277]]}},{"type":"Feature","properties":{"kind":"street","street":"Ortsstraße","zone":"unterort","shared":true,"part":"Pizzeria Fontana bis Ortszentrum"},"geometry":{"type":"LineString","coordinates":[[16.355007,48.114348],[16.354915,48.114419]]}},{"type":"Feature","properties":{"kind":"street","street":"Schönbrunner Allee","zone":"oberort","shared":true,"part":"Badner Bahn bis Pizzeria Fontana"},"geometry":{"type":"LineString","coordinates":[[16.326658,48.129372],[16.326637,48.129348],[16.326624,48.129322],[16.326621,48.129307],[16.326619,48.129292],[16.326621,48.129276],[16.326624,48.129259]]}},{"type":"Feature","properties":{"kind":"street","street":"Schönbrunner Allee","zone":"oberort","shared":true,"part":"Badner Bahn bis Pizzeria Fontana"},"geometry":{"type":"LineString","coordinates":[[16.32542,48.135352],[16.325499,48.135094],[16.325523,48.135005]]}},{"type":"Feature","properties":{"kind":"street","street":"Schönbrunner Allee","zone":"oberort","shared":true,"part":"Badner Bahn bis Pizzeria Fontana"},"geometry":{"type":"LineString","coordinates":[[16.328707,48.128276],[16.32856,48.128309],[16.327661,48.128482],[16.32755,48.128521],[16.327451,48.128581],[16.327352,48.128672],[16.327295,48.128765],[16.327276,48.128824],[16.327241,48.128934]]}},{"type":"Feature","properties":{"kind":"street","street":"Schönbrunner Allee","zone":"oberort","shared":true,"part":"Badner Bahn bis Pizzeria Fontana"},"geometry":{"type":"LineString","coordinates":[[16.329197,48.127739],[16.328802,48.126824],[16.328604,48.126365],[16.328549,48.126235],[16.328297,48.125635],[16.328286,48.125502],[16.328296,48.125425],[16.328326,48.125275],[16.328327,48.125269],[16.328356,48.125163]]}},{"type":"Feature","properties":{"kind":"street","street":"Schönbrunner Allee","zone":"oberort","shared":true,"part":"Badner Bahn bis Pizzeria Fontana"},"geometry":{"type":"LineString","coordinates":[[16.325552,48.134898],[16.325725,48.134284]]}},{"type":"Feature","properties":{"kind":"street","street":"Schönbrunner Allee","zone":"oberort","shared":true,"part":"Badner Bahn bis Pizzeria Fontana"},"geometry":{"type":"LineString","coordinates":[[16.327014,48.129289],[16.327012,48.129313],[16.327004,48.129335],[16.32699,48.129356],[16.326975,48.129375]]}},{"type":"Feature","properties":{"kind":"street","street":"Schönbrunner Allee","zone":"oberort","shared":true,"part":"Badner Bahn bis Pizzeria Fontana"},"geometry":{"type":"LineString","coordinates":[[16.325523,48.135005],[16.325552,48.134898]]}},{"type":"Feature","properties":{"kind":"street","street":"Schönbrunner Allee","zone":"oberort","shared":true,"part":"Badner Bahn bis Pizzeria Fontana"},"geometry":{"type":"LineString","coordinates":[[16.325725,48.134284],[16.325804,48.13399],[16.325958,48.133525],[16.326093,48.133069],[16.326111,48.133007],[16.326306,48.132273],[16.326333,48.132182],[16.32642,48.131892],[16.326457,48.131767],[16.32647,48.13172],[16.326523,48.131542],[16.32658,48.131347],[16.326606,48.131262],[16.32676,48.130738],[16.32682,48.130528],[16.326851,48.130408],[16.326881,48.130297],[16.326951,48.130059],[16.32697,48.129962],[16.32699,48.129859],[16.326981,48.129716]]}},{"type":"Feature","properties":{"kind":"street","street":"Schönbrunner Allee","zone":"oberort","shared":true,"part":"Badner Bahn bis Pizzeria Fontana"},"geometry":{"type":"LineString","coordinates":[[16.326624,48.129259],[16.326636,48.129241],[16.326652,48.129222],[16.326671,48.129205],[16.326694,48.129188]]}},{"type":"Feature","properties":{"kind":"street","street":"Schönbrunner Allee","zone":"oberort","shared":true,"part":"Badner Bahn bis Pizzeria Fontana"},"geometry":{"type":"LineString","coordinates":[[16.326831,48.129162],[16.326869,48.129166]]}},{"type":"Feature","properties":{"kind":"street","street":"Schönbrunner Allee","zone":"oberort","shared":true,"part":"Badner Bahn bis Pizzeria Fontana"},"geometry":{"type":"LineString","coordinates":[[16.326869,48.129166],[16.326905,48.129176],[16.326937,48.129188]]}},{"type":"Feature","properties":{"kind":"street","street":"Schönbrunner Allee","zone":"oberort","shared":true,"part":"Badner Bahn bis Pizzeria Fontana"},"geometry":{"type":"LineString","coordinates":[[16.326694,48.129188],[16.326725,48.129177],[16.326761,48.129168],[16.326782,48.129164],[16.326807,48.129162],[16.326831,48.129162]]}},{"type":"Feature","properties":{"kind":"street","street":"Schönbrunner Allee","zone":"oberort","shared":true,"part":"Badner Bahn bis Pizzeria Fontana"},"geometry":{"type":"LineString","coordinates":[[16.326786,48.129423],[16.326744,48.129414],[16.326717,48.129407],[16.326685,48.129391],[16.326658,48.129372]]}},{"type":"Feature","properties":{"kind":"street","street":"Schönbrunner Allee","zone":"oberort","shared":true,"part":"Badner Bahn bis Pizzeria Fontana"},"geometry":{"type":"LineString","coordinates":[[16.326975,48.129375],[16.326943,48.129395],[16.32691,48.12941],[16.326873,48.12942],[16.326846,48.129424],[16.326819,48.129425],[16.326786,48.129423]]}},{"type":"Feature","properties":{"kind":"street","street":"Schönbrunner Allee","zone":"oberort","shared":true,"part":"Badner Bahn bis Pizzeria Fontana"},"geometry":{"type":"LineString","coordinates":[[16.326937,48.129188],[16.326965,48.129206],[16.326985,48.129227],[16.327001,48.129246],[16.32701,48.129267],[16.327014,48.129289]]}},{"type":"Feature","properties":{"kind":"street","street":"Schönbrunner Allee","zone":"oberort","shared":true,"part":"Badner Bahn bis Pizzeria Fontana"},"geometry":{"type":"LineString","coordinates":[[16.326975,48.129375],[16.326963,48.129425],[16.326984,48.129553],[16.326998,48.129613],[16.326981,48.129716]]}},{"type":"Feature","properties":{"kind":"street","street":"Schönbrunner Allee","zone":"oberort","shared":true,"part":"Badner Bahn bis Pizzeria Fontana"},"geometry":{"type":"LineString","coordinates":[[16.326937,48.129188],[16.327002,48.129164],[16.32706,48.129138],[16.327099,48.129109],[16.327158,48.129038],[16.327188,48.129002],[16.327241,48.128934]]}},{"type":"Feature","properties":{"kind":"street","street":"Schönbrunner Allee","zone":"oberort","shared":true,"part":"Badner Bahn bis Pizzeria Fontana"},"geometry":{"type":"LineString","coordinates":[[16.326981,48.129716],[16.326909,48.129628],[16.326878,48.129566],[16.32685,48.129504],[16.326813,48.12945],[16.326786,48.129423]]}},{"type":"Feature","properties":{"kind":"street","street":"Schönbrunner Allee","zone":"oberort","shared":true,"part":"Badner Bahn bis Pizzeria Fontana"},"geometry":{"type":"LineString","coordinates":[[16.327241,48.128934],[16.327238,48.129011],[16.327215,48.129096],[16.327192,48.129138],[16.327149,48.129194],[16.327117,48.129219],[16.327101,48.129231],[16.327047,48.129266],[16.327014,48.129289]]}},{"type":"Feature","properties":{"kind":"street","street":"Schönbrunner Allee","zone":"oberort","shared":true,"part":"Badner Bahn bis Pizzeria Fontana"},"geometry":{"type":"LineString","coordinates":[[16.329216,48.128223],[16.329106,48.128238],[16.328951,48.128255],[16.328707,48.128276]]}},{"type":"Feature","properties":{"kind":"street","street":"Schönbrunner Allee","zone":"oberort","shared":true,"part":"Badner Bahn bis Pizzeria Fontana"},"geometry":{"type":"LineString","coordinates":[[16.329197,48.127739],[16.329291,48.127863],[16.329334,48.127943],[16.329355,48.127991],[16.329367,48.128017]]}},{"type":"Feature","properties":{"kind":"street","street":"Schönbrunner Allee","zone":"oberort","shared":true,"part":"Badner Bahn bis Pizzeria Fontana"},"geometry":{"type":"LineString","coordinates":[[16.328707,48.128276],[16.328926,48.12821],[16.329076,48.128174],[16.329148,48.128158],[16.329181,48.128152]]}},{"type":"Feature","properties":{"kind":"street","street":"Schönbrunner Allee","zone":"oberort","shared":true,"part":"Badner Bahn bis Pizzeria Fontana"},"geometry":{"type":"LineString","coordinates":[[16.329269,48.128039],[16.32924,48.127962],[16.329216,48.127884],[16.329197,48.127739]]}},{"type":"Feature","properties":{"kind":"street","street":"Schönbrunner Allee","zone":"oberort","shared":true,"part":"Badner Bahn bis Pizzeria Fontana"},"geometry":{"type":"LineString","coordinates":[[16.328497,48.124672],[16.328383,48.125071],[16.328356,48.125163]]}},{"type":"Feature","properties":{"kind":"street","street":"Schönbrunner Allee","zone":"unterort","shared":true,"part":"Pizzeria Fontana bis Ortszentrum"},"geometry":{"type":"LineString","coordinates":[[16.328552,48.124499],[16.32863,48.124341],[16.328667,48.12427],[16.328674,48.124255],[16.328865,48.123911]]}},{"type":"Feature","properties":{"kind":"street","street":"Schönbrunner Allee","zone":"unterort","shared":true,"part":"Pizzeria Fontana bis Ortszentrum"},"geometry":{"type":"LineString","coordinates":[[16.329011,48.123659],[16.329026,48.123632],[16.329108,48.123495],[16.32936,48.123058],[16.329673,48.122491],[16.329926,48.122047],[16.330164,48.121626],[16.330249,48.121477],[16.330334,48.121326],[16.33057,48.120908],[16.330624,48.120818]]}},{"type":"Feature","properties":{"kind":"street","street":"Schönbrunner Allee","zone":"unterort","shared":true,"part":"Pizzeria Fontana bis Ortszentrum"},"geometry":{"type":"LineString","coordinates":[[16.328968,48.123729],[16.329011,48.123659]]}},{"type":"Feature","properties":{"kind":"street","street":"Schönbrunner Allee","zone":"unterort","shared":true,"part":"Pizzeria Fontana bis Ortszentrum"},"geometry":{"type":"LineString","coordinates":[[16.338833,48.106472],[16.338743,48.106599],[16.338691,48.106706],[16.338679,48.106802],[16.338725,48.10683],[16.338832,48.106879],[16.338952,48.106957]]}},{"type":"Feature","properties":{"kind":"street","street":"Schönbrunner Allee","zone":"unterort","shared":true,"part":"Pizzeria Fontana bis Ortszentrum"},"geometry":{"type":"LineString","coordinates":[[16.331554,48.119167],[16.331578,48.119125],[16.331616,48.119057],[16.331747,48.118827],[16.331917,48.118538]]}},{"type":"Feature","properties":{"kind":"street","street":"Schönbrunner Allee","zone":"unterort","shared":true,"part":"Pizzeria Fontana bis Ortszentrum"},"geometry":{"type":"LineString","coordinates":[[16.335025,48.113087],[16.335039,48.113063],[16.335149,48.112883]]}},{"type":"Feature","properties":{"kind":"street","street":"Schönbrunner Allee","zone":"unterort","shared":true,"part":"Pizzeria Fontana bis Ortszentrum"},"geometry":{"type":"LineString","coordinates":[[16.331999,48.1184],[16.332625,48.117306]]}},{"type":"Feature","properties":{"kind":"street","street":"Schönbrunner Allee","zone":"unterort","shared":true,"part":"Pizzeria Fontana bis Ortszentrum"},"geometry":{"type":"LineString","coordinates":[[16.331917,48.118538],[16.331999,48.1184]]}},{"type":"Feature","properties":{"kind":"street","street":"Schönbrunner Allee","zone":"unterort","shared":true,"part":"Pizzeria Fontana bis Ortszentrum"},"geometry":{"type":"LineString","coordinates":[[16.330624,48.120818],[16.330685,48.12072],[16.331554,48.119167]]}},{"type":"Feature","properties":{"kind":"street","street":"Schönbrunner Allee","zone":"unterort","shared":true,"part":"Pizzeria Fontana bis Ortszentrum"},"geometry":{"type":"LineString","coordinates":[[16.334753,48.113566],[16.33497,48.113184]]}},{"type":"Feature","properties":{"kind":"street","street":"Schönbrunner Allee","zone":"unterort","shared":true,"part":"Pizzeria Fontana bis Ortszentrum"},"geometry":{"type":"LineString","coordinates":[[16.335149,48.112883],[16.335315,48.112588],[16.335708,48.111919]]}},{"type":"Feature","properties":{"kind":"street","street":"Schönbrunner Allee","zone":"unterort","shared":true,"part":"Pizzeria Fontana bis Ortszentrum"},"geometry":{"type":"LineString","coordinates":[[16.33497,48.113184],[16.335025,48.113087]]}},{"type":"Feature","properties":{"kind":"street","street":"Schönbrunner Allee","zone":"unterort","shared":true,"part":"Pizzeria Fontana bis Ortszentrum"},"geometry":{"type":"LineString","coordinates":[[16.332625,48.117306],[16.334753,48.113566]]}},{"type":"Feature","properties":{"kind":"street","street":"Schönbrunner Allee","zone":"unterort","shared":true,"part":"Pizzeria Fontana bis Ortszentrum"},"geometry":{"type":"LineString","coordinates":[[16.335708,48.111919],[16.335876,48.111632]]}},{"type":"Feature","properties":{"kind":"street","street":"Schönbrunner Allee","zone":"unterort","shared":true,"part":"Pizzeria Fontana bis Ortszentrum"},"geometry":{"type":"LineString","coordinates":[[16.328552,48.124499],[16.328517,48.1246],[16.328509,48.124628],[16.328497,48.124672]]}},{"type":"Feature","properties":{"kind":"street","street":"Schönbrunner Allee","zone":"unterort","shared":true,"part":"Pizzeria Fontana bis Ortszentrum"},"geometry":{"type":"LineString","coordinates":[[16.328865,48.123911],[16.328948,48.123761],[16.328968,48.123729]]}},{"type":"Feature","properties":{"kind":"street","street":"Schönbrunner Allee","zone":"unterort","shared":true,"part":"Pizzeria Fontana bis Ortszentrum"},"geometry":{"type":"LineString","coordinates":[[16.335876,48.111632],[16.337798,48.108274],[16.338091,48.10778],[16.338267,48.107556],[16.338431,48.107375],[16.338697,48.107149],[16.338952,48.106957]]}},{"type":"Feature","properties":{"kind":"rail","street":"Badner Bahn","zone":null},"geometry":{"type":"LineString","coordinates":[[16.327903,48.139601],[16.327897,48.139594],[16.327221,48.138705],[16.326822,48.138229],[16.326443,48.13774],[16.326419,48.137709],[16.326374,48.137652],[16.326223,48.137453],[16.326175,48.137391],[16.325552,48.136571],[16.325453,48.136435],[16.325387,48.136343],[16.325326,48.136252],[16.325242,48.136122],[16.325151,48.135984],[16.325104,48.135911],[16.32506,48.135846],[16.32492,48.135629],[16.324689,48.135274],[16.324354,48.134754],[16.324333,48.134721],[16.323503,48.133444],[16.323318,48.133159],[16.323187,48.132951],[16.323098,48.132807],[16.323039,48.132707],[16.322939,48.132527],[16.322782,48.132243],[16.322758,48.1322],[16.32217,48.131098],[16.322124,48.131013],[16.322057,48.130885],[16.321963,48.130712],[16.32182,48.130447],[16.321799,48.130409],[16.321568,48.129982],[16.321435,48.129734],[16.32123,48.129351],[16.320715,48.12839],[16.319798,48.126678],[16.319532,48.126181],[16.319319,48.125783],[16.319203,48.125561],[16.319192,48.12554],[16.319184,48.125524]]}},{"type":"Feature","properties":{"kind":"rail","street":"Badner Bahn","zone":null},"geometry":{"type":"LineString","coordinates":[[16.318523,48.123627],[16.318497,48.123516],[16.318491,48.12347],[16.318482,48.123381],[16.318475,48.123292],[16.318471,48.123263],[16.318447,48.123152]]}},{"type":"Feature","properties":{"kind":"rail","street":"Badner Bahn","zone":null},"geometry":{"type":"LineString","coordinates":[[16.315504,48.109831],[16.315499,48.109747],[16.315495,48.109702],[16.315484,48.109611],[16.315468,48.10949],[16.315465,48.109465],[16.315464,48.109352]]}},{"type":"Feature","properties":{"kind":"rail","street":"Badner Bahn","zone":null},"geometry":{"type":"LineString","coordinates":[[16.322124,48.131013],[16.322063,48.130884],[16.322046,48.130834],[16.322029,48.130782],[16.322004,48.130709],[16.32198,48.130651],[16.321934,48.130554]]}},{"type":"Feature","properties":{"kind":"rail","street":"Badner Bahn","zone":null},"geometry":{"type":"LineString","coordinates":[[16.321169,48.129004],[16.321104,48.128861],[16.321075,48.128777],[16.321056,48.128718],[16.321034,48.128663],[16.321006,48.128603],[16.320963,48.128519],[16.320306,48.127288],[16.320215,48.127146],[16.320135,48.127033],[16.320073,48.126946],[16.320007,48.126837]]}},{"type":"Feature","properties":{"kind":"rail","street":"Badner Bahn","zone":null},"geometry":{"type":"LineString","coordinates":[[16.322457,48.13153],[16.322397,48.131431],[16.322368,48.13139],[16.32231,48.13131],[16.32225,48.131229],[16.322225,48.131194],[16.32217,48.131098]]}},{"type":"Feature","properties":{"kind":"rail","street":"Badner Bahn","zone":null},"geometry":{"type":"LineString","coordinates":[[16.321583,48.129787],[16.32156,48.129741],[16.321351,48.129348]]}},{"type":"Feature","properties":{"kind":"rail","street":"Badner Bahn","zone":null},"geometry":{"type":"LineString","coordinates":[[16.31877,48.124327],[16.318727,48.124209],[16.318698,48.124141],[16.318678,48.124096],[16.318654,48.124048],[16.318634,48.124],[16.318589,48.12387]]}},{"type":"Feature","properties":{"kind":"rail","street":"Badner Bahn","zone":null},"geometry":{"type":"LineString","coordinates":[[16.315463,48.109259],[16.315471,48.109177],[16.315477,48.109135],[16.315499,48.109024],[16.315518,48.108932],[16.315524,48.108894],[16.315534,48.108774]]}},{"type":"Feature","properties":{"kind":"rail","street":"Badner Bahn","zone":null},"geometry":{"type":"LineString","coordinates":[[16.321557,48.129852],[16.321504,48.129745],[16.321487,48.129701],[16.321446,48.129578],[16.321413,48.129487],[16.321351,48.129348],[16.321278,48.129206],[16.321206,48.129071],[16.321184,48.129029],[16.321169,48.129004],[16.320872,48.128453],[16.320638,48.128016],[16.320007,48.126837],[16.319907,48.126648],[16.319897,48.126626],[16.319792,48.126454],[16.319735,48.126375],[16.319674,48.126292],[16.319622,48.126211]]}},{"type":"Feature","properties":{"kind":"rail","street":"Badner Bahn","zone":null},"geometry":{"type":"LineString","coordinates":[[16.327954,48.139594],[16.327273,48.138697],[16.326874,48.138221],[16.326481,48.137715],[16.326424,48.137641],[16.326268,48.137437],[16.326217,48.137369],[16.325604,48.136563],[16.325497,48.136418],[16.325434,48.13633],[16.325374,48.13624],[16.32526,48.136063],[16.325171,48.135926],[16.325139,48.135877],[16.324972,48.13562],[16.324744,48.135268],[16.324738,48.135258],[16.3244,48.134738],[16.324378,48.134704],[16.323548,48.133418],[16.323371,48.133144],[16.323232,48.13293],[16.323151,48.132798],[16.323085,48.132686],[16.322921,48.132392],[16.322812,48.132191],[16.32262,48.131835],[16.322457,48.13153],[16.32221,48.131069],[16.322191,48.131033],[16.322164,48.130982],[16.321934,48.130554],[16.321874,48.130443],[16.32185,48.130396],[16.321557,48.129852],[16.321122,48.129039],[16.320216,48.12735],[16.320065,48.127062],[16.31963,48.126227],[16.319622,48.126211]]}},{"type":"Feature","properties":{"kind":"rail","street":"Badner Bahn","zone":null},"geometry":{"type":"LineString","coordinates":[[16.320306,48.127288],[16.320048,48.126793],[16.3198,48.126316],[16.319618,48.12597]]}},{"type":"Feature","properties":{"kind":"rail","street":"Badner Bahn","zone":null},"geometry":{"type":"LineString","coordinates":[[16.319897,48.126626],[16.319773,48.12638],[16.31965,48.126139],[16.319493,48.125847],[16.319481,48.125826],[16.319476,48.125814],[16.319471,48.125805]]}},{"type":"Feature","properties":{"kind":"rail","street":"Badner Bahn","zone":null},"geometry":{"type":"LineString","coordinates":[[16.319622,48.126211],[16.319584,48.126142],[16.319385,48.125771],[16.319278,48.12558],[16.319257,48.125542],[16.319246,48.125524],[16.319232,48.125499],[16.319212,48.125463],[16.319168,48.125383],[16.319065,48.125179],[16.319023,48.125092],[16.318987,48.125004],[16.318948,48.124904],[16.318913,48.124809],[16.318883,48.124716],[16.318848,48.1246],[16.318805,48.124449],[16.31877,48.124327],[16.318666,48.123959]]}},{"type":"Feature","properties":{"kind":"rail","street":"Badner Bahn","zone":null},"geometry":{"type":"LineString","coordinates":[[16.319184,48.125524],[16.319172,48.125502],[16.319125,48.125414],[16.319061,48.125296],[16.319011,48.125193],[16.31897,48.125103],[16.318932,48.125012],[16.318896,48.124921],[16.318863,48.12483],[16.31884,48.12476],[16.318807,48.124654],[16.318779,48.124549]]}},{"type":"Feature","properties":{"kind":"rail","street":"Badner Bahn","zone":null},"geometry":{"type":"LineString","coordinates":[[16.318779,48.124549],[16.318753,48.124456],[16.318589,48.12387],[16.318523,48.123627],[16.318464,48.123404],[16.318234,48.122583],[16.31777,48.120892],[16.317722,48.120714],[16.317523,48.119991],[16.317462,48.119749],[16.317353,48.119288],[16.317205,48.118618],[16.31695,48.117455],[16.316942,48.117423],[16.316823,48.116887],[16.316495,48.115561],[16.31608,48.113997],[16.315756,48.112814],[16.315701,48.11262],[16.315646,48.112417],[16.315586,48.112194],[16.315552,48.112046],[16.315517,48.111859],[16.315501,48.111769],[16.315486,48.111667],[16.315455,48.111394],[16.315443,48.111227],[16.315439,48.111074],[16.315438,48.111004],[16.315436,48.110802],[16.315438,48.110546],[16.315438,48.110418],[16.315442,48.110109],[16.315451,48.109748],[16.315464,48.109352],[16.315463,48.109259],[16.315476,48.108864],[16.31548,48.108698],[16.315483,48.108405],[16.315505,48.107535],[16.315484,48.107258],[16.315389,48.106035],[16.315293,48.104789],[16.315174,48.103261],[16.315141,48.102776],[16.315016,48.100956],[16.315013,48.100913],[16.314973,48.10031],[16.314946,48.099907],[16.314893,48.099323],[16.31489,48.099283],[16.314697,48.096862],[16.314655,48.096295],[16.314561,48.095035],[16.314491,48.094094],[16.314453,48.093578],[16.314433,48.09331],[16.314307,48.09158],[16.314302,48.091505],[16.314227,48.090493],[16.314179,48.08984],[16.314126,48.089124]]}},{"type":"Feature","properties":{"kind":"rail","street":"Badner Bahn","zone":null},"geometry":{"type":"LineString","coordinates":[[16.318666,48.123959],[16.318514,48.123401],[16.318447,48.123152],[16.318283,48.122574],[16.317515,48.119741],[16.317485,48.119626],[16.317428,48.11938],[16.317257,48.118613],[16.316999,48.117436],[16.316994,48.117413],[16.316874,48.11688],[16.316405,48.115016],[16.316132,48.11399],[16.315996,48.113488],[16.315924,48.113211],[16.315863,48.112959],[16.315818,48.112755],[16.315782,48.112576],[16.315749,48.112397],[16.315717,48.112218],[16.31569,48.11204],[16.315669,48.111921],[16.315652,48.111803],[16.315632,48.111663],[16.315577,48.111195],[16.315561,48.111035],[16.315519,48.11061],[16.315511,48.110497],[16.315506,48.110401],[16.315501,48.110257],[16.315498,48.110141],[16.315498,48.11001],[16.315504,48.109831],[16.31551,48.109481],[16.315517,48.109254],[16.315534,48.108774],[16.315535,48.1087],[16.31554,48.108246],[16.315557,48.107528],[16.315441,48.106037],[16.315344,48.104782],[16.315226,48.103254],[16.315069,48.100955],[16.315066,48.100909],[16.315023,48.100305],[16.314989,48.09979],[16.314945,48.099276],[16.31491,48.098857],[16.314892,48.098641],[16.314818,48.096932]]}},{"type":"Feature","properties":{"kind":"settlement","street":"Seeparksiedlung","zone":"seepark"},"geometry":{"type":"Polygon","coordinates":[[[16.34861,48.113908],[16.347651,48.11196],[16.347602,48.111819],[16.34749,48.11177],[16.347609,48.111411],[16.34782,48.111008],[16.348108,48.110522],[16.348298,48.110132],[16.34851,48.109598],[16.348792,48.108691],[16.349357,48.107524],[16.349542,48.107177],[16.349747,48.106851],[16.349964,48.106659],[16.350026,48.106781],[16.351354,48.109187],[16.351418,48.10916],[16.351463,48.109116],[16.351471,48.108992],[16.351239,48.108682],[16.350692,48.107701],[16.350964,48.107632],[16.351448,48.107509],[16.351554,48.10757],[16.351586,48.107635],[16.352282,48.10905],[16.352015,48.109171],[16.351983,48.109214],[16.351896,48.109332],[16.351906,48.109475],[16.351935,48.109599],[16.351981,48.109635],[16.352052,48.109809],[16.352094,48.109997],[16.352598,48.110803],[16.352714,48.110836],[16.352754,48.110981],[16.352695,48.11102],[16.352708,48.111056],[16.352818,48.111332],[16.352542,48.111387],[16.351973,48.111523],[16.351955,48.111475],[16.351837,48.111499],[16.3517,48.111472],[16.351314,48.111506],[16.350932,48.11149],[16.350609,48.111427],[16.350337,48.111345],[16.35024,48.11143],[16.350629,48.111772],[16.350537,48.111793],[16.349862,48.11195],[16.349045,48.11214],[16.34865,48.112244],[16.348575,48.112428],[16.348618,48.11262],[16.349159,48.113716],[16.349167,48.113791],[16.34861,48.113908]]]}},{"type":"Feature","properties":{"kind":"settlement","street":"Tröber Siedlung","zone":"unterort"},"geometry":{"type":"Polygon","coordinates":[[[16.327087,48.118303],[16.327163,48.118318],[16.327237,48.118331],[16.327401,48.118375],[16.327691,48.118427],[16.327751,48.118619],[16.328309,48.118691],[16.328368,48.118582],[16.329502,48.11874],[16.329491,48.118823],[16.329704,48.118839],[16.330246,48.118849],[16.330222,48.118671],[16.329935,48.118604],[16.329049,48.11671],[16.328902,48.116504],[16.32861,48.115972],[16.327906,48.116126],[16.327943,48.116196],[16.326499,48.116564],[16.327037,48.117769],[16.326878,48.117825],[16.327087,48.118303]]]}},{"type":"Feature","properties":{"kind":"settlement","street":"Benyasiedlung","zone":"oberort","shared":true,"note":"Gemeinde-Website: Anton-Benya-Straße gehört zu Oberort. Der Kalender 2026 nennt die Benyasiedlung auf der Seepark-Seite (dort wegen der Müllinseln)."},"geometry":{"type":"Polygon","coordinates":[[[16.312154,48.115627],[16.311272,48.115191],[16.31127,48.115018],[16.311315,48.114923],[16.311361,48.114934],[16.31156,48.114759],[16.312673,48.114474],[16.312729,48.11448],[16.312955,48.115395],[16.312975,48.115466],[16.313015,48.11553],[16.314448,48.115553],[16.314567,48.115608],[16.314828,48.116745],[16.31431,48.116829],[16.312154,48.115627]]]}}]}